{"type": "FeatureCollection", "features": [ {"type": "Feature", "properties": {"norad_id": 32289, "name": "YAOGAN-3", "group": "resource", "lat": 22.552257800336328, "lon": -163.85050515389472, "alt_km": 597.9903499700849, "timestamp": "2025-12-12T05:47:28.428531+00:00", "meta": {"OBJECT_NAME": "YAOGAN-3", "OBJECT_ID": "2007-055A", "EPOCH": "2025-12-12T00:15:09.927648", "MEAN_MOTION": 14.8985306, "ECCENTRICITY": 0.00012388, "INCLINATION": 97.8367, "RA_OF_ASC_NODE": 12.6419, "ARG_OF_PERICENTER": 74.5929, "MEAN_ANOMALY": 285.5425, "EPHEMERIS_TYPE": 0, "CLASSIFICATION_TYPE": "U", "NORAD_CAT_ID": 32289, "ELEMENT_SET_NO": 999, "REV_AT_EPOCH": 97798, "BSTAR": 0.00051355768, "MEAN_MOTION_DOT": 4.88e-05, "MEAN_MOTION_DDOT": 0}, "tle": {"line1": "1 32289U 07055A   25346.01053157  .00004880  00000+0  51356-3 0  9995", "line2": "2 32289  97.8367  12.6419 0001238  74.5929 285.5425 14.89853060977984"}}, "geometry": {"type": "Point", "coordinates": [-163.85050515389472, 22.552257800336328]}}, {"type": "Feature", "properties": {"norad_id": 32376, "name": "COSMO-SKYMED 2", "group": "resource", "lat": 82.11356453942327, "lon": 77.84191578656181, "alt_km": 613.9776248877833, "timestamp": "2025-12-12T05:47:28.428542+00:00", "meta": {"OBJECT_NAME": "COSMO-SKYMED 2", "OBJECT_ID": "2007-059A", "EPOCH": "2025-12-12T00:31:34.470336", "MEAN_MOTION": 14.82165052, "ECCENTRICITY": 0.00015108, "INCLINATION": 97.8811, "RA_OF_ASC_NODE": 167.3566, "ARG_OF_PERICENTER": 84.9067, "MEAN_ANOMALY": 275.2318, "EPHEMERIS_TYPE": 0, "CLASSIFICATION_TYPE": "U", "NORAD_CAT_ID": 32376, "ELEMENT_SET_NO": 999, "REV_AT_EPOCH": 97427, "BSTAR": 0.00012350074, "MEAN_MOTION_DOT": 9.31e-06, "MEAN_MOTION_DDOT": 0}, "tle": {"line1": "1 32376U 07059A   25346.02192674  .00000931  00000+0  12350-3 0  9999", "line2": "2 32376  97.8811 167.3566 0001510  84.9067 275.2318 14.82165052974273"}}, "geometry": {"type": "Point", "coordinates": [77.84191578656181, 82.11356453942327]}}, {"type": "Feature", "properties": {"norad_id": 32382, "name": "RADARSAT-2", "group": "resource", "lat": 46.87345364477479, "lon": -179.88572240516072, "alt_km": 787.0933651902196, "timestamp": "2025-12-12T05:47:28.428553+00:00", "meta": {"OBJECT_NAME": "RADARSAT-2", "OBJECT_ID": "2007-061A", "EPOCH": "2025-12-12T00:08:11.679936", "MEAN_MOTION": 14.29981215, "ECCENTRICITY": 0.00011148, "INCLINATION": 98.5802, "RA_OF_ASC_NODE": 350.6061, "ARG_OF_PERICENTER": 85.4888, "MEAN_ANOMALY": 274.6422, "EPHEMERIS_TYPE": 0, "CLASSIFICATION_TYPE": "U", "NORAD_CAT_ID": 32382, "ELEMENT_SET_NO": 999, "REV_AT_EPOCH": 93920, "BSTAR": 1.4676904e-05, "MEAN_MOTION_DOT": -6e-08, "MEAN_MOTION_DDOT": 0}, "tle": {"line1": "1 32382U 07061A   25346.00569074 -.00000006  00000+0  14677-4 0  9998", "line2": "2 32382  98.5802 350.6061 0001114  85.4888 274.6422 14.29981215939203"}}, "geometry": {"type": "Point", "coordinates": [-179.88572240516072, 46.87345364477479]}}, {"type": "Feature", "properties": {"norad_id": 32783, "name": "CARTOSAT-2A", "group": "resource", "lat": -54.64364005786245, "lon": -155.0490301980382, "alt_km": 645.2448963162406, "timestamp": "2025-12-12T05:47:28.428564+00:00", "meta": {"OBJECT_NAME": "CARTOSAT-2A", "OBJECT_ID": "2008-021A", "EPOCH": "2025-12-11T23:51:30.941568", "MEAN_MOTION": 14.78935448, "ECCENTRICITY": 0.00119803, "INCLINATION": 97.7929, "RA_OF_ASC_NODE": 35.8404, "ARG_OF_PERICENTER": 7.2567, "MEAN_ANOMALY": 352.8815, "EPHEMERIS_TYPE": 0, "CLASSIFICATION_TYPE": "U", "NORAD_CAT_ID": 32783, "ELEMENT_SET_NO": 999, "REV_AT_EPOCH": 95113, "BSTAR": 0.00020229562, "MEAN_MOTION_DOT": 1.443e-05, "MEAN_MOTION_DDOT": 0}, "tle": {"line1": "1 32783U 08021A   25345.99410812  .00001443  00000+0  20230-3 0  9998", "line2": "2 32783  97.7929  35.8404 0011980   7.2567 352.8815 14.78935448951132"}}, "geometry": {"type": "Point", "coordinates": [-155.0490301980382, -54.64364005786245]}}, {"type": "Feature", "properties": {"norad_id": 33320, "name": "HUANJING 1A (HJ-1A)", "group": "resource", "lat": 81.76228778095785, "lon": -137.16596662073462, "alt_km": 603.4514468800216, "timestamp": "2025-12-12T05:47:28.428574+00:00", "meta": {"OBJECT_NAME": "HUANJING 1A (HJ-1A)", "OBJECT_ID": "2008-041A", "EPOCH": "2025-12-12T00:31:05.435616", "MEAN_MOTION": 14.83392883, "ECCENTRICITY": 0.00202184, "INCLINATION": 97.6546, "RA_OF_ASC_NODE": 334.3503, "ARG_OF_PERICENTER": 36.7759, "MEAN_ANOMALY": 323.4838, "EPHEMERIS_TYPE": 0, "CLASSIFICATION_TYPE": "U", "NORAD_CAT_ID": 33320, "ELEMENT_SET_NO": 999, "REV_AT_EPOCH": 93065, "BSTAR": 0.00036800356, "MEAN_MOTION_DOT": 2.979e-05, "MEAN_MOTION_DDOT": 0}, "tle": {"line1": "1 33320U 08041A   25346.02159069  .00002979  00000+0  36800-3 0  9992", "line2": "2 33320  97.6546 334.3503 0020218  36.7759 323.4838 14.83392883930654"}}, "geometry": {"type": "Point", "coordinates": [-137.16596662073462, 81.76228778095785]}}, {"type": "Feature", "properties": {"norad_id": 33321, "name": "HUANJING 1B (HJ-1B)", "group": "resource", "lat": -44.98245412107865, "lon": -14.031246460471989, "alt_km": 641.5330730733212, "timestamp": "2025-12-12T05:47:28.428585+00:00", "meta": {"OBJECT_NAME": "HUANJING 1B (HJ-1B)", "OBJECT_ID": "2008-041B", "EPOCH": "2025-12-11T23:31:05.420640", "MEAN_MOTION": 14.82817454, "ECCENTRICITY": 0.00381835, "INCLINATION": 97.6406, "RA_OF_ASC_NODE": 338.009, "ARG_OF_PERICENTER": 78.0751, "MEAN_ANOMALY": 282.4741, "EPHEMERIS_TYPE": 0, "CLASSIFICATION_TYPE": "U", "NORAD_CAT_ID": 33321, "ELEMENT_SET_NO": 999, "REV_AT_EPOCH": 93066, "BSTAR": 0.00024207386, "MEAN_MOTION_DOT": 1.932e-05, "MEAN_MOTION_DDOT": 0}, "tle": {"line1": "1 33321U 08041B   25345.97992385  .00001932  00000+0  24207-3 0  9998", "line2": "2 33321  97.6406 338.0090 0038183  78.0751 282.4741 14.82817454930666"}}, "geometry": {"type": "Point", "coordinates": [-14.031246460471989, -44.98245412107865]}}, {"type": "Feature", "properties": {"norad_id": 33331, "name": "GEOEYE 1", "group": "resource", "lat": -26.38276944685537, "lon": 61.59193380258288, "alt_km": 682.2636480995625, "timestamp": "2025-12-12T05:47:28.428595+00:00", "meta": {"OBJECT_NAME": "GEOEYE 1", "OBJECT_ID": "2008-042A", "EPOCH": "2025-12-11T23:21:18.152064", "MEAN_MOTION": 14.64811148, "ECCENTRICITY": 0.00027353, "INCLINATION": 98.1253, "RA_OF_ASC_NODE": 57.2634, "ARG_OF_PERICENTER": 279.7509, "MEAN_ANOMALY": 80.3385, "EPHEMERIS_TYPE": 0, "CLASSIFICATION_TYPE": "U", "NORAD_CAT_ID": 33331, "ELEMENT_SET_NO": 999, "REV_AT_EPOCH": 92274, "BSTAR": 0.00019225324, "MEAN_MOTION_DOT": 9.78e-06, "MEAN_MOTION_DDOT": 0}, "tle": {"line1": "1 33331U 08042A   25345.97312676  .00000978  00000+0  19225-3 0  9992", "line2": "2 33331  98.1253  57.2634 0002735 279.7509  80.3385 14.64811148922745"}}, "geometry": {"type": "Point", "coordinates": [61.59193380258288, -26.38276944685537]}}, {"type": "Feature", "properties": {"norad_id": 33396, "name": "THEOS", "group": "resource", "lat": -81.40258976829867, "lon": 132.25729433201047, "alt_km": 833.1929728741325, "timestamp": "2025-12-12T05:47:28.428606+00:00", "meta": {"OBJECT_NAME": "THEOS", "OBJECT_ID": "2008-049A", "EPOCH": "2025-12-12T01:08:24.635040", "MEAN_MOTION": 14.20095708, "ECCENTRICITY": 0.00011537, "INCLINATION": 98.5864, "RA_OF_ASC_NODE": 44.1569, "ARG_OF_PERICENTER": 94.8406, "MEAN_ANOMALY": 265.2903, "EPHEMERIS_TYPE": 0, "CLASSIFICATION_TYPE": "U", "NORAD_CAT_ID": 33396, "ELEMENT_SET_NO": 999, "REV_AT_EPOCH": 89140, "BSTAR": -1.1808234e-05, "MEAN_MOTION_DOT": -6.8e-07, "MEAN_MOTION_DDOT": 0}, "tle": {"line1": "1 33396U 08049A   25346.04750735 -.00000068  00000+0 -11808-4 0  9993", "line2": "2 33396  98.5864  44.1569 0001153  94.8406 265.2903 14.20095708891401"}}, "geometry": {"type": "Point", "coordinates": [132.25729433201047, -81.40258976829867]}}, {"type": "Feature", "properties": {"norad_id": 33412, "name": "COSMO-SKYMED 3", "group": "resource", "lat": -24.87074803365787, "lon": 12.958964636155397, "alt_km": 546.4011996381178, "timestamp": "2025-12-12T05:47:28.428617+00:00", "meta": {"OBJECT_NAME": "COSMO-SKYMED 3", "OBJECT_ID": "2008-054A", "EPOCH": "2025-12-12T00:05:52.279584", "MEAN_MOTION": 15.05353295, "ECCENTRICITY": 0.00159783, "INCLINATION": 97.8469, "RA_OF_ASC_NODE": 196.3833, "ARG_OF_PERICENTER": 176.3385, "MEAN_ANOMALY": 183.7961, "EPHEMERIS_TYPE": 0, "CLASSIFICATION_TYPE": "U", "NORAD_CAT_ID": 33412, "ELEMENT_SET_NO": 999, "REV_AT_EPOCH": 92876, "BSTAR": 0.00090209693, "MEAN_MOTION_DOT": 0.00012909, "MEAN_MOTION_DDOT": 0}, "tle": {"line1": "1 33412U 08054A   25346.00407731  .00012909  00000+0  90210-3 0  9997", "line2": "2 33412  97.8469 196.3833 0015978 176.3385 183.7961 15.05353295928769"}}, "geometry": {"type": "Point", "coordinates": [12.958964636155397, -24.87074803365787]}}, {"type": "Feature", "properties": {"norad_id": 33446, "name": "YAOGAN-4", "group": "resource", "lat": -46.18147239004721, "lon": 88.00614244659616, "alt_km": 629.0752710763827, "timestamp": "2025-12-12T05:47:28.428628+00:00", "meta": {"OBJECT_NAME": "YAOGAN-4", "OBJECT_ID": "2008-061A", "EPOCH": "2025-12-11T19:03:10.073376", "MEAN_MOTION": 14.82677773, "ECCENTRICITY": 0.00136364, "INCLINATION": 97.9179, "RA_OF_ASC_NODE": 275.9025, "ARG_OF_PERICENTER": 326.6885, "MEAN_ANOMALY": 33.3469, "EPHEMERIS_TYPE": 0, "CLASSIFICATION_TYPE": "U", "NORAD_CAT_ID": 33446, "ELEMENT_SET_NO": 999, "REV_AT_EPOCH": 91789, "BSTAR": 0.00029431307, "MEAN_MOTION_DOT": 2.323e-05, "MEAN_MOTION_DDOT": 0}, "tle": {"line1": "1 33446U 08061A   25345.79386659  .00002323  00000+0  29431-3 0  9998", "line2": "2 33446  97.9179 275.9025 0013636 326.6885  33.3469 14.82677773917895"}}, "geometry": {"type": "Point", "coordinates": [88.00614244659616, -46.18147239004721]}}]}